[{"OBJECT_NAME":"CENTAURI-7","OBJECT_ID":"2025-009DD","EPOCH":"2026-03-09T18:21:07.569216","MEAN_MOTION":14.97068612,"ECCENTRICITY":0.00019728,"INCLINATION":97.7123,"RA_OF_ASC_NODE":150.3372,"ARG_OF_PERICENTER":133.1699,"MEAN_ANOMALY":226.9688,"EPHEMERIS_TYPE":0,"CLASSIFICATION_TYPE":"U","NORAD_CAT_ID":62708,"ELEMENT_SET_NO":999,"REV_AT_EPOCH":6258,"BSTAR":0.00048082234,"MEAN_MOTION_DOT":5.487e-5,"MEAN_MOTION_DDOT":0},{"OBJECT_NAME":"STARLINK-34685","OBJECT_ID":"2025-150Z","EPOCH":"2026-03-09T13:41:24.326880","MEAN_MOTION":14.98346858,"ECCENTRICITY":0.0003693,"INCLINATION":70.0014,"RA_OF_ASC_NODE":134.9641,"ARG_OF_PERICENTER":271.3879,"MEAN_ANOMALY":88.6857,"EPHEMERIS_TYPE":0,"CLASSIFICATION_TYPE":"U","NORAD_CAT_ID":64813,"ELEMENT_SET_NO":999,"REV_AT_EPOCH":3649,"BSTAR":0.00026014,"MEAN_MOTION_DOT":3.014e-5,"MEAN_MOTION_DDOT":0}]
