CENTAURI-7              
1 62708U 25009DD  26068.76467094  .00005487  00000+0  48082-3 0  9992
2 62708  97.7123 150.3372 0001973 133.1699 226.9688 14.97068612 62583
STARLINK-34685          
1 64813U 25150Z   26068.57042045  .00003014  00000+0  26014-3 0  9997
2 64813  70.0014 134.9641 0003693 271.3879  88.6857 14.98346858 36492
